STARLINK-37558          
1 69239U 26117B   26182.16670139 -.02529465  00000+0 -42161-1 0  9997
2 69239  53.1598 174.0256 0001596  76.4155 129.9570 15.54752032  6155
STARLINK-37680          
1 69240U 26117C   26182.16670139 -.02510793  00000+0 -42351-1 0  9994
2 69240  53.1598 173.9929 0001429  90.1227 132.1769 15.54406093  6159
STARLINK-37742          
1 69241U 26117D   26182.16670139 -.02408438  00000+0 -40895-1 0  9998
2 69241  53.1597 174.0173 0001560  84.3525 125.8166 15.54675068  6154
STARLINK-37718          
1 69242U 26117E   26182.16670139 -.02456468  00000+0 -44737-1 0  9994
2 69242  53.1596 174.0226 0001649  72.1239 135.2022 15.52235416  6151
STARLINK-37735          
1 69243U 26117F   26182.16670139 -.01704695  00000+0 -31935-1 0  9998
2 69243  53.1593 174.1738 0000895  74.9400  57.6538 15.51326583  6165
STARLINK-37757          
1 69244U 26117G   26182.16670139 -.01778154  00000+0 -34117-1 0  9995
2 69244  53.1595 174.1038 0000988  79.8927  87.4798 15.50805475  6049
STARLINK-37767          
1 69245U 26117H   26182.16670139 -.00881646  00000+0 -16180-1 0  9996
2 69245  53.1599 173.9742 0001633  72.0188 158.2781 15.51379796  6014
STARLINK-35759          
1 69246U 26117J   26182.16670139 -.02574764  00000+0 -52581-1 0  9994
2 69246  53.1593 174.0051 0001453  86.8317 127.9266 15.49218868  6055
STARLINK-37238          
1 69247U 26117K   26182.16670139  .00022118  00000+0  40507-3 0  9999
2 69247  53.1603 174.4940 0000894  86.4324 245.7012 15.49276409  6166
STARLINK-37412          
1 69248U 26117L   26182.16670139 -.02445594  00000+0 -48578-1 0  9995
2 69248  53.1602 173.9306 0001567  93.9352 156.1269 15.49809372  6168
STARLINK-37398          
1 69249U 26117M   26182.16670139  .00021526  00000+0  39444-3 0  9991
2 69249  53.1598 174.3256 0001184  81.6109 334.1163 15.49278978  6029
STARLINK-37499          
1 69250U 26117N   26182.16670139  .00026485  00000+0  48323-3 0  9998
2 69250  53.1594 174.1759 0001284  89.0725  40.1455 15.49274475  6059
STARLINK-37489          
1 69251U 26117P   26182.16670139  .00029538  00000+0  53771-3 0  9994
2 69251  53.1596 174.2436 0001225  97.5429 358.4984 15.49278031  6161
STARLINK-37434          
1 69252U 26117Q   26182.12643259  .00051071  00000+0  91908-3 0  9995
2 69252  53.1594 174.8995 0001158  93.5963 266.5179 15.49347512  5165
STARLINK-37368          
1 69253U 26117R   26182.16670139 -.02507314  00000+0 -40090-1 0  9991
2 69253  53.1598 173.6111 0000852  97.3779 308.6400 15.56458590  6167
STARLINK-37517          
1 69254U 26117S   26182.16670139 -.02473622  00000+0 -47407-1 0  9995
2 69254  53.1604 173.7295 0001080 100.6960 246.4404 15.50853538  6162
STARLINK-37378          
1 69255U 26117T   26182.16670139 -.01781876  00000+0 -33041-1 0  9997
2 69255  53.1601 173.6995 0001391 107.6940 254.0515 15.51754836  6166
STARLINK-37396          
1 69256U 26117U   26182.16670139 -.02548869  00000+0 -50321-1 0  9992
2 69256  53.1601 173.6773 0001024  89.1082 282.6607 15.50134133  6176
STARLINK-37508          
1 69257U 26117V   26182.16670139 -.01900714  00000+0 -37363-1 0  9994
2 69257  53.1606 173.7768 0000778  75.7733 247.0663 15.49812967  6179
STARLINK-37276          
1 69258U 26117W   26181.26705172  .00043967  00000+0  79371-3 0  9993
2 69258  53.1592 178.7637 0001608  59.4222 300.6945 15.49324198  5036
STARLINK-37518          
1 69259U 26117X   26182.17140419  .00086279  00000+0  15404-2 0  9991
2 69259  53.1593 174.4530 0001684  95.2108 264.9093 15.49344002  5175
STARLINK-37478          
1 69260U 26117Y   26182.15583412  .00079760  00000+0  14259-2 0  9999
2 69260  53.1586 175.0807 0001777 105.4109 254.7096 15.49341979  5160
STARLINK-37506          
1 69261U 26117Z   26181.28064462  .00039917  00000+0  72161-3 0  9999
2 69261  53.1585 178.8511 0000839  83.4018 276.7087 15.49328169  5020
STARLINK-37503          
1 69262U 26117AA  26182.15590933 -.00273025  00000+0 -51621-2 0  9993
2 69262  53.1591 174.3504 0002270 128.2358 231.8856 15.48816777  5175
STARLINK-37502          
1 69263U 26117AB  26181.27118323  .00042893  00000+0  77482-3 0  9994
2 69263  53.1590 178.7887 0001139  48.5074 311.6033 15.49316601  5030
STARLINK-37486          
1 69264U 26117AC  26182.16670139 -.02503513  00000+0 -62284-1 0  9999
2 69264  53.1596 174.2037 0001033  83.9330  24.4436 15.43445524  6034
STARLINK-37435          
1 69265U 26117AD  26182.16670139 -.02536197  00000+0 -63545-1 0  9995
2 69265  53.1601 173.9098 0001535  90.4396 162.2799 15.43283754  6170
STARLINK-37464          
1 69266U 26117AE  26182.16670139 -.02528516  00000+0 -59957-1 0  9994
2 69266  53.1606 173.7198 0001135 100.8234 245.2328 15.44883709  6029
STARLINK-37501          
1 69296U 26119A   26182.02390021  .00027973  00000+0  86508-3 0  9994
2 69296  97.2848 207.8695 0002421 108.0835 252.0672 15.33462321  6171
STARLINK-37496          
1 69297U 26119B   26182.16670139 -.02605011  00000+0 -61699-1 0  9992
2 69297  97.2842 208.1332 0001287  86.4799 279.6825 15.45513971  6137
