OBJECT_NAME,OBJECT_ID,EPOCH,MEAN_MOTION,ECCENTRICITY,INCLINATION,RA_OF_ASC_NODE,ARG_OF_PERICENTER,MEAN_ANOMALY,EPHEMERIS_TYPE,CLASSIFICATION_TYPE,NORAD_CAT_ID,ELEMENT_SET_NO,REV_AT_EPOCH,BSTAR,MEAN_MOTION_DOT,MEAN_MOTION_DDOT
STARLINK-37558,2026-117B,2026-07-01T04:00:03.000096,15.54752032,.0001596,53.1598,174.0256,76.4155,129.9570,0,U,69239,999,615,-.42161E-1,-.2529465E-1,0
STARLINK-37680,2026-117C,2026-07-01T04:00:03.000096,15.54406093,.0001429,53.1598,173.9929,90.1227,132.1769,0,U,69240,999,615,-.42351E-1,-.2510793E-1,0
STARLINK-37742,2026-117D,2026-07-01T04:00:03.000096,15.54675068,.000156,53.1597,174.0173,84.3525,125.8166,0,U,69241,999,615,-.40895E-1,-.2408438E-1,0
STARLINK-37718,2026-117E,2026-07-01T04:00:03.000096,15.52235416,.0001649,53.1596,174.0226,72.1239,135.2022,0,U,69242,999,615,-.44737E-1,-.2456468E-1,0
STARLINK-37735,2026-117F,2026-07-01T04:00:03.000096,15.51326583,.0000895,53.1593,174.1738,74.9400,57.6538,0,U,69243,999,616,-.31935E-1,-.1704695E-1,0
STARLINK-37757,2026-117G,2026-07-01T04:00:03.000096,15.50805475,.0000988,53.1595,174.1038,79.8927,87.4798,0,U,69244,999,604,-.34117E-1,-.1778154E-1,0
STARLINK-37767,2026-117H,2026-07-01T04:00:03.000096,15.51379796,.0001633,53.1599,173.9742,72.0188,158.2781,0,U,69245,999,601,-.1618E-1,-.881646E-2,0
STARLINK-35759,2026-117J,2026-07-01T04:00:03.000096,15.49218868,.0001453,53.1593,174.0051,86.8317,127.9266,0,U,69246,999,605,-.52581E-1,-.2574764E-1,0
STARLINK-37238,2026-117K,2026-07-01T04:00:03.000096,15.49276409,.0000894,53.1603,174.4940,86.4324,245.7012,0,U,69247,999,616,.40507E-3,.22118E-3,0
STARLINK-37412,2026-117L,2026-07-01T04:00:03.000096,15.49809372,.0001567,53.1602,173.9306,93.9352,156.1269,0,U,69248,999,616,-.48578E-1,-.2445594E-1,0
STARLINK-37398,2026-117M,2026-07-01T04:00:03.000096,15.49278978,.0001184,53.1598,174.3256,81.6109,334.1163,0,U,69249,999,602,.39444E-3,.21526E-3,0
STARLINK-37499,2026-117N,2026-07-01T04:00:03.000096,15.49274475,.0001284,53.1594,174.1759,89.0725,40.1455,0,U,69250,999,605,.48323E-3,.26485E-3,0
STARLINK-37489,2026-117P,2026-07-01T04:00:03.000096,15.49278031,.0001225,53.1596,174.2436,97.5429,358.4984,0,U,69251,999,616,.53771E-3,.29538E-3,0
STARLINK-37434,2026-117Q,2026-07-01T03:02:03.775776,15.49347512,.0001158,53.1594,174.8995,93.5963,266.5179,0,U,69252,999,516,.91908E-3,.51071E-3,0
STARLINK-37368,2026-117R,2026-07-01T04:00:03.000096,15.56458590,.0000852,53.1598,173.6111,97.3779,308.6400,0,U,69253,999,616,-.4009E-1,-.2507314E-1,0
STARLINK-37517,2026-117S,2026-07-01T04:00:03.000096,15.50853538,.000108,53.1604,173.7295,100.6960,246.4404,0,U,69254,999,616,-.47407E-1,-.2473622E-1,0
STARLINK-37378,2026-117T,2026-07-01T04:00:03.000096,15.51754836,.0001391,53.1601,173.6995,107.6940,254.0515,0,U,69255,999,616,-.33041E-1,-.1781876E-1,0
STARLINK-37396,2026-117U,2026-07-01T04:00:03.000096,15.50134133,.0001024,53.1601,173.6773,89.1082,282.6607,0,U,69256,999,617,-.50321E-1,-.2548869E-1,0
STARLINK-37508,2026-117V,2026-07-01T04:00:03.000096,15.49812967,.0000778,53.1606,173.7768,75.7733,247.0663,0,U,69257,999,617,-.37363E-1,-.1900714E-1,0
STARLINK-37276,2026-117W,2026-06-30T06:24:33.268608,15.49324198,.0001608,53.1592,178.7637,59.4222,300.6945,0,U,69258,999,503,.79370643E-3,.43967E-3,0
STARLINK-37518,2026-117X,2026-07-01T04:06:49.322016,15.49344002,.0001684,53.1593,174.4530,95.2108,264.9093,0,U,69259,999,517,.15404E-2,.86279E-3,0
STARLINK-37478,2026-117Y,2026-07-01T03:44:24.067968,15.49341979,.0001777,53.1586,175.0807,105.4109,254.7096,0,U,69260,999,516,.14259E-2,.7976E-3,0
STARLINK-37506,2026-117Z,2026-06-30T06:44:07.695168,15.49328169,.00008397,53.1585,178.8511,83.4018,276.7087,0,U,69261,999,502,.7216134E-3,.39917E-3,0
STARLINK-37503,2026-117AA,2026-07-01T03:44:30.566112,15.48816777,.000227,53.1591,174.3504,128.2358,231.8856,0,U,69262,999,517,-.51621E-2,-.273025E-2,0
STARLINK-37502,2026-117AB,2026-06-30T06:30:30.231072,15.49316601,.00011391,53.1590,178.7887,48.5074,311.6033,0,U,69263,999,503,.77482498E-3,.42893E-3,0
STARLINK-37486,2026-117AC,2026-07-01T04:00:03.000096,15.43445524,.0001033,53.1596,174.2037,83.9330,24.4436,0,U,69264,999,603,-.62284E-1,-.2503513E-1,0
STARLINK-37435,2026-117AD,2026-07-01T04:00:03.000096,15.43283754,.0001535,53.1601,173.9098,90.4396,162.2799,0,U,69265,999,617,-.63545E-1,-.2536197E-1,0
STARLINK-37464,2026-117AE,2026-07-01T04:00:03.000096,15.44883709,.0001135,53.1606,173.7198,100.8234,245.2328,0,U,69266,999,602,-.59957E-1,-.2528516E-1,0
STARLINK-37501,2026-119A,2026-07-01T00:34:24.978144,15.33462321,.0002421,97.2848,207.8695,108.0835,252.0672,0,U,69296,999,617,.86508E-3,.27973E-3,0
STARLINK-37496,2026-119B,2026-07-01T04:00:03.000096,15.45513971,.0001287,97.2842,208.1332,86.4799,279.6825,0,U,69297,999,613,-.61699E-1,-.2605011E-1,0
